#dP2024  4 29  6  0  0.00000000      96 __u+U IGS20 EXT  IAC
## 2312 108000.00000000   900.00000000 60429 0.2500000000000
+  119   C06C07C08C09C10C11C12C13C14C16C19C20C21C22C23C24C25
+        C26C27C28C29C30C32C33C34C35C36C37C38C39C40C41C42C43
+        C44C45C46E02E03E04E05E07E08E09E10E11E12E13E14E15E18
+        E19E21E24E25E26E27E30E31E33E34E36G02G03G04G05G06G07
+        G08G09G10G11G12G13G14G15G16G17G18G19G20G21G22G23G24
+        G25G26G27G28G29G30G31G32J02J03J04R01R02R03R04R05R07
+        R08R09R11R12R13R14R15R16R17R18R19R20R21R22R24R25R26
++        11  9  9 10  7  8  8  8  9 11 10 10  8  9 10  8  8
++         7  9  8  9  9  8  9  7  8  9  8 10 11 10  8  9  9
++         7  8  8  8  7  8  7  8  8  7  9  8  8  8  7  8  8
++         8  9  8  8  7  8  8  9  8  9  8  7  8  8  8  7  7
++         8  8  7  8  9  8  8  8  8  8  7  8  8  7  9  8  7
++         7  7  7  7  7  8  8  7  8  7  0  8  9  9  9  7  8
++         9  7  7 11  8  7 10  7  7  7  8 10  7  7  8  9  9
%c M  cc GPS ccc cccc cccc cccc cccc ccccc ccccc ccccc ccccc
%c cc cc ccc ccc cccc cccc cccc cccc ccccc ccccc ccccc ccccc
%f  0.0000000  0.000000000  0.00000000000  0.000000000000000
%f  0.0000000  0.000000000  0.00000000000  0.000000000000000
%i    0    0    0    0      0      0      0      0         0
%i    0    0    0    0      0      0      0      0         0
/* IAC                                ULTRA-RAPID PREDICTION
/* S/V CLOCKS ARE ALIGNED TO GNSS TIME                      
/* G:C1WC2W R:C1PC2P E:C1XC5X C:C2IC6I J:C1CC2S             
/* PCV:IGS20_2290 OL/AL:FES2004  NONE     YN ORB:CoN CLK:CoN
*  2024 04 29 23 45  0.00000000
PC06 -16738.708246  34319.955218  17623.653979    384.453479
PC07  -4163.196156  36518.578382  20938.867713   -774.536307
PC08  -8872.617002  18615.519721 -36800.629585    -69.620011
PC09 -11524.733255  32986.398807  23611.816171   -832.314989
PC10   3030.920052  39681.206194  15084.775961     67.333630
PC11  16375.242551    714.157383 -22522.394084    537.600225
PC12   5113.794761  19335.949919 -19428.296594   -239.119348
PC13   -672.599318  21757.029469 -35934.445305    433.513423
PC14  20662.012373  10679.906244  15484.953152    763.982283
PC16 -20782.222960  33979.253575  13589.567320   -489.972409
PC19 -18288.557221  -1168.436642 -21007.760945   -913.329320
PC20 -19934.512814 -17254.634392  -9070.328711   -412.427355
PC21   9583.478262  24420.206225  -9549.803638   -964.719802
PC22  -6042.172899  16602.720506 -21608.777450    -21.534968
PC23  18066.160786 -13668.866860 -16290.007879   -776.950577
PC24  21183.950869   9193.413806  15640.102788    931.962815
PC25  27602.976594  -3977.102623   -684.180017    387.447142
PC26   2905.484577  16051.363920  22623.530278   -284.351008
PC27   1192.722628 -24599.696254  13108.335450    306.015875
PC28  12883.294336 -24674.376889  -1998.776681    234.284685
PC29 -18262.248267   9390.504463  18885.403049    274.870104
PC30 -12056.486508 -11808.992240  22215.191513    -66.223251
PC32  -9650.609868 -24321.927454   9683.123882   -612.375866
PC33  18394.582103   1164.879094  20967.959229   -968.351979
PC34  13029.299116  10144.757363 -22510.515898    423.090150
PC35 -12088.209561  25027.714867   2241.581856    374.991452
PC36 -27714.309277   3263.107300    562.044162     66.816422
PC37  -2320.770363 -16145.407790 -22633.039581   -966.912967
PC38 -16807.371514  18605.115148 -33884.216489    152.098620
PC39 -22688.936048  34498.015102   8022.920010     -8.175841
PC40  -7799.807582  33584.558891  24462.971099    -67.834845
PC41   6790.586374 -15940.272383  21927.171613   -936.205207
PC42  19639.150301  18374.651982   7566.025284   -442.662453
PC43  18334.857563  -8355.749459 -19331.402683     69.850156
PC44   -228.819153  24703.257338 -12967.440244    458.708057
PC45 -18197.131591  13496.909346  16304.142335    -82.845954
PC46 -21759.097182  -8742.352928 -15160.907693   -144.142577
PE02  25579.818561  14830.771380   1206.773842    123.491786
PE03  14892.020829  15263.244507  20539.536341   -110.545374
PE04 -16217.834560   7602.788345 -23552.866906   -385.414641
PE05   4859.824458  28672.773401   5545.278464   4743.196579
PE07   8328.133025 -25184.615280  13133.344203   -117.359766
PE08  16244.989925  -6636.753666  23842.226394   -262.937464
PE09  -8285.470596  25147.575360 -13243.271437   -425.224396
PE10 -24338.430774  16719.565710  -2064.042792   -621.008301
PE11 -17881.031480  20249.012697 -12091.961036   2956.294353
PE12 -26527.473439  10976.546619   7151.290571  -1016.590314
PE13  18389.081151 -20126.049078  11547.367263    -21.289070
PE14 -15834.810682  -3764.875913  18637.398830     21.319764
PE15  26533.430549 -10639.898084  -7704.727325   -100.009319
PE18  18173.971093  14099.370458 -21540.065431     55.513289
PE19 -13971.089186 -17349.941348 -19476.605878   -152.111279
PE21 -12204.414740 -20403.029789 -17637.467949   -591.894513
PE24  -9283.396781  14120.641632  24284.514740   -735.278091
PE25  11804.809024  20399.059899  17907.327808      3.928447
PE26  -1065.806825 -17573.453685  23795.851894    440.271901
PE27   8883.520016 -14302.861525 -24346.821664   -337.015480
PE30  24566.408511    300.374061 -16516.078085   -250.041443
PE31 -24490.583942   -156.507253  16627.478256    -22.164907
PE33 -18610.175286  -5359.660890  22382.815644     11.070050
PE34  19010.372762   4918.833898 -22157.079345   -108.484312
PE36    373.152795  17688.839166 -23729.295667   -220.311432
PG02 -10979.776436  20018.519052 -12847.810892   -444.774824
PG03   1777.636919  16452.393138 -20956.204507    337.805189
PG04  -1746.482631  26180.034928  -3618.398446    350.162685
PG05  13637.328744  -9410.547644  20602.023815   -170.944524
PG06  21766.970479  -2278.084106 -15065.813029    297.709226
PG07   8634.800246  13090.034799  21944.407518   -118.295953
PG08  -7090.635838  21801.639364  12926.813641    151.243512
PG09   8113.492190  23759.269697   8506.176952    178.447399
PG10 -24407.289577 -10717.207144  -1862.217258    -15.455608
PG11  23698.305445 -11420.703591  -3442.353750   -649.794079
PG12   1154.323867 -16381.171457 -21170.389358   -501.047756
PG13  13159.756744 -14608.893446  17540.410614    646.722812
PG14  23043.652756  13352.741902   1504.085261    388.724488
PG15   4346.503460 -22739.767850  12344.609983    153.773174
PG16 -17888.570539   4550.430852  18927.436028   -304.211185
PG17  12597.914334  13946.355567 -18285.548298    709.586281
PG18  -8763.199338 -12096.027717  21976.526930   -602.884398
PG19  14836.172045   4356.731024 -21813.136034    475.210327
PG20  22210.418748  -3865.146040  13986.853865    378.356037
PG21 -14811.031187  19495.974082  -8450.716654    124.464840
PG22  23745.651476   9426.939979  -6259.501793     -6.722813
PG23 -19076.713967 -15930.550927   9662.509416    213.267991
PG24  11538.208788 -20743.797018 -11900.867173   -464.817890
PG25  -9791.778880 -18196.089682 -17170.279405    494.799685
PG26 -24918.797588  -2601.050416   9196.172979    159.854560
PG27 -12974.641798  11433.057420  19747.276931    -21.488684
PG28 -20630.990713    380.549914 -16733.708262   -223.558135
PG29  -4170.500930 -25325.705691   6544.724045   -600.208434
PG30  18101.053233   4856.740844  19060.620872   -397.824699
PG31 -24111.977589   8317.267522  -8317.927206   -227.941367
PG32 -14379.124934 -10802.353481 -19398.566534   -618.424306
PJ02 -26096.033393  22599.018403  29280.854848     -4.681430
PJ03 -34781.956432  23864.569115   4218.880491      0.065745
PJ04      0.000000      0.000000      0.000000     50.338380
PR01  14793.860683   9886.576936  18292.708556     83.918337
PR02   8443.132061  -7280.221658  22997.688662    -22.827484
PR03  -2352.015024 -20887.332897  14544.495608     99.222007
PR04 -11352.136241 -22791.559759  -1585.765338    234.229166
PR05 -14377.862798 -12575.635060 -16899.214958    130.749783
PR07   2909.485419  21238.725351 -13742.098171     81.330261
PR08  11703.138854  22564.896476   2004.521309    -75.251425
PR09 -21252.561313   5413.337375  12972.870280    183.829159
PR11  11723.979507  10378.780262  20152.666131     26.356209
PR12  24785.833402   4006.506492   4492.735207     39.575288
PR13  22784.238583  -3780.998297 -10839.765138    -46.889098
PR14   5830.727130 -10545.408080 -22473.222329     26.451599
PR15 -13175.043163 -10276.780206 -19251.766149     80.205088
PR16 -24735.346347  -3949.081255  -4710.382054     25.195516
PR17  10587.921333 -21682.000846   8221.977130     82.432280
PR18   -671.072750 -15043.291451  20614.613307    139.650245
PR19 -10861.500412  -2643.918499  22921.917119   -274.852551
PR20 -17566.176001  15320.643977  10312.068354   -112.048288
PR21 -10857.538880  21606.922245  -8158.707705    -96.840266
PR22   1472.788147  14452.827938 -20940.227435    114.502154
PR24  17027.579505 -16329.072697  -9675.615394    -53.857836
PR25 -11243.610549  21314.864421  -8387.246591    -32.495518
PR26  11352.458095  22848.004507    724.634402    -22.291759
EOF
